     2.100          NAVIGATION                              RINEX VERSION / TYPE
fic2rin                                 09/13/2008 01:45:34 PGM / RUN BY / DATE
                                                            END OF HEADER
26 08  9 12 20  0  0.0  .324594322592D-03  .557065504836D-11  .000000000000D+00
     .500000000000D+02  .798437500000D+02  .351086052715D-08  .920651215744D+00
     .426359474659D-05  .191432224819D-01  .103302299976D-04  .515363454628D+04
     .504000000000D+06 -.255182385445D-06  .984887799387D-01  .763684511185D-07
     .993704909055D+00  .200968750000D+03  .954123913696D+00 -.783032616451D-08
    -.146434671020D-10  .100000000000D+01  .149600000000D+04  .000000000000D+00
     .240000000000D+01  .000000000000D+00 -.605359673500D-08  .500000000000D+02
     .496806000000D+06  .400000000000D+01
28 08  9 12 20  0  0.0 -.224383547902D-04 -.227373675443D-12  .000000000000D+00
     .650000000000D+02 -.113000000000D+03  .440339770490D-08  .307476802450D+01
    -.589899718761D-05  .139885796234D-01  .741332769394D-05  .515364082336D+04
     .504000000000D+06  .670552253723D-07  .217277099944D+01 -.208616256714D-06
     .964452805833D+00  .239531250000D+03 -.209295512384D+01 -.784318384295D-08
    -.221080637467D-09  .100000000000D+01  .149600000000D+04  .000000000000D+00
     .340000000000D+01  .000000000000D+00 -.102445483208D-07  .650000000000D+02
     .496806000000D+06  .400000000000D+01
29 08  9 12 20  0  0.0 -.377488322556D-04  .113686837722D-11  .000000000000D+00
     .480000000000D+02  .990625000000D+01  .446197157331D-08 -.988145201540D+00
     .454485416412D-06  .350617547520D-02  .116508454084D-04  .515360772896D+04
     .504000000000D+06 -.111758708954D-06 -.306965126224D+01 -.149011611938D-07
     .960272420869D+00  .153406250000D+03 -.137618730297D+01 -.798104672835D-08
     .392873507616D-09  .100000000000D+01  .149600000000D+04  .000000000000D+00
     .240000000000D+01  .000000000000D+00 -.884756445885D-08  .480000000000D+02
     .496806000000D+06  .400000000000D+01
30 08  9 12 20  0  0.0  .962861813605D-04  .193267624127D-11  .000000000000D+00
     .600000000000D+02 -.121062500000D+03  .480234289400D-08 -.276853293258D+01
    -.632181763649D-05  .110853442457D-01  .698491930962D-05  .515369732857D+04
     .504000000000D+06  .208616256714D-06  .210411464477D+01  .372529029846D-07
     .949497695670D+00  .234937500000D+03  .139924270026D+01 -.817069748520D-08
    -.196793911542D-09  .100000000000D+01  .149600000000D+04  .000000000000D+00
     .240000000000D+01  .000000000000D+00 -.791624188423D-08  .600000000000D+02
     .496806000000D+06  .400000000000D+01
31 08  9 12 20  0  0.0 -.260197557509D-04 -.227373675443D-11  .000000000000D+00
     .120000000000D+02  .343750000000D+02  .469876715108D-08 -.331646586069D+00
     .154413282871D-05  .667939183768D-02  .220909714699D-05  .515353410339D+04
     .504000000000D+06 -.167638063431D-06  .109373310599D+01 -.372529029846D-07
     .969077034291D+00  .341843750000D+03 -.123947680825D+01 -.854214152877D-08
     .276082928534D-09  .100000000000D+01  .149600000000D+04  .000000000000D+00
     .240000000000D+01  .000000000000D+00 -.130385160446D-07  .120000000000D+02
     .496806000000D+06  .400000000000D+01
32 08  9 12 20  0  0.0  .316106714308D-03  .568434188608D-12  .000000000000D+00
     .860000000000D+02 -.377187500000D+02  .439018286874D-08  .688216107238D+00
    -.214576721191D-05  .139534556074D-01  .999495387077D-05  .515376882172D+04
     .504000000000D+06 -.838190317154D-07 -.911808913164D+00 -.234693288803D-06
     .967474428016D+00  .198062500000D+03 -.128831776783D+01 -.815569686037D-08
    -.710386733316D-09  .100000000000D+01  .149600000000D+04  .000000000000D+00
     .340000000000D+01  .000000000000D+00 -.325962901115D-08  .860000000000D+02
     .496806000000D+06  .400000000000D+01
23 08  9 12 19 59 12.0  .372893176973D-03  .147792889038D-11  .000000000000D+00
     .170000000000D+02  .849687500000D+02  .392409202561D-08  .142707129934D+01
     .457465648651D-05  .587986176834D-02  .104214996099D-04  .515369927216D+04
     .503952000000D+06  .204890966415D-07  .542153139197D-01  .124797224998D-06
     .971557071035D+00  .181937500000D+03  .282605259369D+01 -.773032199894D-08
     .115361948145D-09  .100000000000D+01  .149600000000D+04  .000000000000D+00
     .240000000000D+01  .000000000000D+00 -.200234353542D-07  .170000000000D+02
     .497286000000D+06  .400000000000D+01
20 08  9 12 19 59 44.0  .104826409370D-03 -.102318153949D-11  .000000000000D+00
     .260000000000D+02 -.438125000000D+02  .482841540860D-08 -.226295013844D+01
    -.218674540520D-05  .350961857475D-02  .878982245922D-05  .515377227211D+04
     .503984000000D+06  .596046447754D-07 -.101595825419D+01 -.987201929092D-07
     .945461722664D+00  .204656250000D+03  .136520684029D+01 -.811390940547D-08
    -.663241912402D-09  .100000000000D+01  .149600000000D+04  .000000000000D+00
     .240000000000D+01  .000000000000D+00 -.651925802231D-08  .260000000000D+02
     .499356000000D+06  .400000000000D+01
28 08  9 12 19 59 44.0 -.224383547902D-04 -.227373675443D-12  .000000000000D+00
     .500000000000D+01 -.113000000000D+03  .440339770490D-08  .307243433662D+01
    -.589899718761D-05  .139885779936D-01  .741332769394D-05  .515364082909D+04
     .503984000000D+06  .670552253723D-07  .217277111063D+01 -.208616256714D-06
     .964452814611D+00  .239531250000D+03 -.209295523649D+01 -.784318384295D-08
    -.221080637467D-09  .100000000000D+01  .149600000000D+04  .000000000000D+00
     .240000000000D+01  .000000000000D+00 -.102445483208D-07  .500000000000D+01
     .500706000000D+06  .400000000000D+01
 8 08  9 12 19 59 44.0 -.169734004885D-03 -.159161572810D-11  .000000000000D+00
     .000000000000D+00  .197187500000D+02  .423089051929D-08 -.773428712502D+00
     .843778252602D-06  .105567248538D-01  .223144888878D-05  .515371716118D+04
     .503984000000D+06  .651925802231D-07  .115212133082D+01 -.188127160072D-06
     .984756960383D+00  .345593750000D+03  .290438128872D+01 -.824105755884D-08
     .295369446180D-09  .100000000000D+01  .149600000000D+04  .000000000000D+00
     .240000000000D+01  .000000000000D+00 -.372529029846D-08  .000000000000D+00
     .501066000000D+06  .400000000000D+01
23 08  9 12 21 59 12.0  .372903421521D-03  .147792889038D-11  .000000000000D+00
     .740000000000D+02  .924062500000D+02  .390480550797D-08  .247685481620D+01
     .486895442009D-05  .587966735475D-02  .114515423775D-04  .515370325661D+04
     .511152000000D+06 -.186264514923D-07  .541599176008D-01  .596046447754D-07
     .971557678146D+00  .165406250000D+03  .282642776927D+01 -.771925010918D-08
     .707172313708D-10  .100000000000D+01  .149600000000D+04  .000000000000D+00
     .240000000000D+01  .000000000000D+00 -.200234353542D-07  .740000000000D+02
     .504006000000D+06  .400000000000D+01
 8 08  9 12 21 59 44.0 -.169745646417D-03 -.159161572810D-11  .000000000000D+00
     .100000000000D+01  .278750000000D+02  .431160816722D-08  .276674927410D+00
     .139139592648D-05  .105558289215D-01  .228546559811D-05  .515371524239D+04
     .511184000000D+06  .143423676491D-06  .115206194659D+01  .558793544769D-08
     .984758099996D+00  .345250000000D+03  .290443085238D+01 -.839213528041D-08
     .202508435289D-09  .100000000000D+01  .149600000000D+04  .000000000000D+00
     .240000000000D+01  .000000000000D+00 -.372529029846D-08  .100000000000D+01
     .504006000000D+06  .400000000000D+01
20 08  9 12 21 59 44.0  .104818958789D-03 -.102318153949D-11  .000000000000D+00
     .270000000000D+02 -.417500000000D+02  .501306595718D-08 -.121291116536D+01
    -.229477882385D-05  .350970798172D-02  .865384936333D-05  .515377170181D+04
     .511184000000D+06 -.745058059692D-08 -.101601685430D+01  .745058059692D-07
     .945455966082D+00  .203375000000D+03  .136529137208D+01 -.829141679936D-08
    -.722887254013D-09  .100000000000D+01  .149600000000D+04  .000000000000D+00
     .240000000000D+01  .000000000000D+00 -.651925802231D-08  .270000000000D+02
     .504006000000D+06  .400000000000D+01
28 08  9 12 21 59 44.0 -.224402174354D-04 -.227373675443D-12  .000000000000D+00
     .600000000000D+01 -.116437500000D+03  .434268089009D-08 -.216054832328D+01
    -.609830021858D-05  .139889903367D-01  .695139169693D-05  .515364015388D+04
     .511184000000D+06  .178813934326D-06  .217271394857D+01 -.912696123123D-07
     .964451650128D+00  .241468750000D+03 -.209295710756D+01 -.787532803902D-08
    -.117504894551D-09  .100000000000D+01  .149600000000D+04  .000000000000D+00
     .240000000000D+01  .000000000000D+00 -.102445483208D-07  .600000000000D+01
     .504006000000D+06  .400000000000D+01
 2 08  9 12 22  0  0.0  .187873840332D-03 -.284217094304D-11  .000000000000D+00
     .700000000000D+02  .304687500000D+02  .543736934540D-08  .270087636099D+01
     .164285302162D-05  .875656853896D-02  .457465648651D-05  .515376861954D+04
     .511200000000D+06 -.391155481339D-07 -.205483322689D+01  .257045030594D-06
     .942561644104D+00  .281625000000D+03  .263849365005D+01 -.848356766036D-08
     .153934983439D-09  .100000000000D+01  .149600000000D+04  .000000000000D+00
     .240000000000D+01  .000000000000D+00 -.172294676304D-07  .700000000000D+02
     .504006000000D+06  .400000000000D+01
 3 08  9 12 22  0  0.0  .282633118331D-03  .511590769747D-11  .000000000000D+00
     .101000000000D+03 -.160000000000D+02  .512235622384D-08  .237108573813D+01
    -.821426510811D-06  .111419344321D-01  .126995146275D-04  .515370628166D+04
     .511200000000D+06 -.763684511185D-07  .308371575227D+01 -.197440385818D-06
     .926512641336D+00  .115625000000D+03  .847026011542D+00 -.806247869174D-08
     .425374861428D-09  .100000000000D+01  .149600000000D+04  .000000000000D+00
     .340000000000D+01  .000000000000D+00 -.419095158577D-08  .101000000000D+03
     .504006000000D+06  .400000000000D+01
